OBJECT_NAME,OBJECT_ID,EPOCH,MEAN_MOTION,ECCENTRICITY,INCLINATION,RA_OF_ASC_NODE,ARG_OF_PERICENTER,MEAN_ANOMALY,EPHEMERIS_TYPE,CLASSIFICATION_TYPE,NORAD_CAT_ID,ELEMENT_SET_NO,REV_AT_EPOCH,BSTAR,MEAN_MOTION_DOT,MEAN_MOTION_DDOT
SL-8 R/B,1985-006B,2026-06-17T20:26:24.530784,14.37835285,.00188977,74.0459,76.8413,323.8477,103.1314,0,U,15483,999,16842,.64420595E-4,.168E-5,0
SL-12 R/B(2),1985-042D,2026-06-17T15:57:19.399968,14.22006065,.00363552,71.1077,236.5073,327.0243,146.4490,0,U,15772,999,12860,.6262525E-4,.92E-6,0
SL-14 R/B,1985-069B,2026-06-17T20:12:57.119328,14.86516001,.00178413,82.5271,290.7497,216.8586,143.1406,0,U,15945,999,18771,.37915409E-4,.361E-5,0
SL-16 R/B,1985-097B,2026-06-17T18:30:19.668672,14.16610066,.00053946,71.0033,289.8484,110.0062,357.9401,0,U,16182,999,10140,-.14375574E-4,-.77E-6,0
SL-14 R/B,1986-006B,2026-06-17T10:55:38.446176,14.86945864,.00749394,82.5262,165.8610,302.5715,56.8280,0,U,16496,999,16403,.4603211E-4,.458E-5,0
COSMOS 1743,1986-034A,2026-06-17T20:22:52.100832,15.66992078,.00039507,82.5282,328.0276,267.9983,92.0825,0,U,16719,999,19589,.37505274E-3,.39972E-3,0
SL-14 R/B,1986-046B,2026-06-17T21:27:00.069120,14.85671463,.00216129,82.4817,345.5076,255.9249,103.9565,0,U,16792,999,14128,.34822883E-4,.327E-5,0
SL-14 R/B,1986-055B,2026-06-17T16:24:34.409376,14.85723376,.00190243,82.5204,32.6661,6.0559,53.9290,0,U,16882,999,13421,.31183228E-4,.296E-5,0
AJISAI (EGS),1986-061A,2026-06-17T22:34:44.066784,12.44516784,.00112092,50.0066,145.0774,182.4949,257.0319,0,U,16908,999,48048,-.14676139E-3,-.118E-5,0
SL-14 R/B,1987-024B,2026-06-17T22:59:38.452416,14.86213646,.0016772,82.5279,358.5259,290.4665,69.4751,0,U,17567,999,10302,.31242401E-4,.299E-5,0
COSMOS 1833,1987-027A,2026-06-17T21:17:15.429696,14.13050574,.00228195,70.9180,115.3971,53.9439,306.3792,0,U,17589,999,2447,.19884941E-3,.324E-5,0
SL-16 R/B,1987-027B,2026-06-17T22:07:37.455456,14.17171606,.00065463,71.0033,65.2804,311.3770,48.6791,0,U,17590,999,2954,-.71041583E-4,-.191E-5,0
SL-14 R/B,1987-038B,2026-06-17T14:24:38.161152,14.85445370,.0018935,82.5008,202.6830,189.7934,170.2916,0,U,17912,999,9406,.27099E-4,.259E-5,0
COSMOS 1844,1987-041A,2026-06-17T11:03:23.496768,14.14567818,.0032887,70.8968,183.7304,235.1707,124.6321,0,U,17973,999,1769,-.55836518E-4,-.156E-5,0
SL-14 R/B,1987-055B,2026-06-17T18:17:08.498688,14.85711401,.00216545,82.4995,254.6873,45.8715,314.4278,0,U,18153,999,8479,.32772983E-4,.31E-5,0
COSMOS 1867,1987-060A,2026-06-17T19:57:50.628672,14.31515790,.00165493,65.0116,26.2533,282.1549,77.7682,0,U,18187,999,3427,.15320608E-4,-.59E-6,0
SL-14 R/B,1988-001B,2026-06-17T21:34:03.949248,14.85610084,.00164288,82.5132,101.1043,266.9813,92.9523,0,U,18749,999,5690,.36351781E-4,.339E-5,0
COSMOS 1933,1988-020A,2026-06-17T10:23:17.662848,15.18714160,.0003593,82.5121,152.1919,184.2553,175.8651,0,U,18958,999,6536,.15573007E-3,.3261E-4,0
SL-3 R/B,1988-032B,2026-06-17T21:37:32.665728,15.20844814,.002384,97.5256,151.9410,242.3375,117.5440,0,U,19046,999,6733,.15082504E-3,.3281E-4,0
SL-16 R/B,1988-039B,2026-06-17T13:02:49.784928,14.19629596,.002224,71.0137,217.4045,192.6408,167.4163,0,U,19120,999,97255,.39576E-4,.36E-6,0
COSMOS 1953,1988-050A,2026-06-17T17:42:57.962304,15.29985621,.00121792,82.5076,57.4792,124.5915,235.6476,0,U,19210,999,5307,.20377079E-3,.5959E-4,0
SL-8 R/B,1988-053B,2026-06-17T18:43:39.446688,14.38967585,.0019168,74.0481,287.9638,83.0871,29.7664,0,U,19257,999,99099,.53192551E-4,.138E-5,0
COSMOS 1975,1988-093A,2026-06-17T14:41:47.071104,15.29329596,.001137,82.5186,17.2741,170.0816,190.0651,0,U,19573,999,3467,.18695E-3,.5359E-4,0
SL-14 R/B,1988-093B,2026-06-17T21:20:08.176128,14.85742351,.00220668,82.5312,307.9857,68.2892,47.0899,0,U,19574,999,1589,.39182986E-4,.366E-5,0
SL-16 R/B,1988-102B,2026-06-17T18:46:24.521664,14.16164154,.00157605,71.0000,300.8867,224.5291,135.4567,0,U,19650,999,94106,-.40504194E-4,-.128E-5,0
INTERCOSMOS 24,1989-080A,2026-06-17T17:33:05.895936,12.59662854,.11883672,82.6065,39.2911,60.6439,310.8059,0,U,20261,999,67939,.21157733E-3,.748E-5,0
SL-14 R/B,1989-080C,2026-06-17T21:10:28.883136,12.50571108,.1228723,82.5933,108.8612,315.8110,35.0939,0,U,20262,999,67267,.68446498E-4,.229E-5,0
DELTA 1 R/B,1989-089B,2026-06-17T11:53:03.139008,14.50731484,.00692733,97.0635,0.0041,166.0115,194.3023,0,U,20323,999,91020,.65327207E-4,.23E-5,0
ARIANE 40 R/B,1990-005H,2026-06-17T17:44:59.357760,14.39927722,.00088453,98.2959,226.3385,262.3989,97.6195,0,U,20443,999,90720,.75660092E-4,.196E-5,0
DELTA 2 R/B(1),1990-008B,2026-06-17T13:44:05.709984,15.68875859,.0064898,35.5987,233.0827,118.2484,242.4826,0,U,20453,999,94176,.54779E-3,.74176E-3,0
